# Made by eph2tle, compiled Feb  6 2024 12:03:08
# Run at Thu Feb 15 20:07:35 2024
#
# No updates
#
#    The following TLEs (Two-Line Elements) were generated by fitting
# a numerically-integrated ephemeris,  based on the orbit given below,
# to the SDP4/SGP4 models.  Each TLE is good for the interval between
# its epoch and the epoch of the subsequent TLE (usually one day).
# The maximum deviation between the numerically integrated ephemerides
# and the TLE-based ephemeris, in kilometers,  is given for each TLE
# as the "worst residual".
#
#    This fitting is done using the 'eph2tle' code packaged with Find_Orb.
# The code has details on how the TLEs were computed :
#
#    https://github.com/Bill-Gray/find_orb/eph2tle.cpp
#
#    Be warned:  the error given is that between the numerically
# integrated ephems and the TLE model.  There will usually be at
# least some additional difference between the ephems and the actual
# motion of the satellite,  especially if the ephemerides are based
# on a short arc.  If the following orbital elements say something
# like "[based on] 10 observations 2015 Jan. 1-13",  and the TLEs
# are for 2015 May,  the extrapolation may be tenuous at best.  If
# your application requires a specific level of accuracy,  you may
# want to contact me;  I can give you some idea as to the fit of the
# underlying data (and possibly TLEs based on newer data).
#
#   You can usually find the underlying observational data,  and the
# fitted orbit,  residuals,  ephemerides,  and sometimes some comments
# about the object,  among the pages listed at
#
#    https://www.projectpluto.com/pluto/mpecs/pseudo.htm
#
#    WARNING:  for this object,  "normal" TLEs cannot be fitted.  (This
# usually means an object with an hyperbolic or nearly-parabolic orbit.)
# For this and similar cases,   an alternative model is used,  in which
# most of the traditional TLE data is replaced by six signed 8-digit hex
# numbers.  These six numbers are a state vector,  numerically integrated
# using a simplified force model.  This is necessary for objects at L2 or
# L1,  and sometimes for objects in high orbits where the SDP4/SGP4 model
# fails.  Some documentation is in 'get_el.cpp' in the source code at
# https://www.github.com/Bill-Gray/sat_code ; look for 'hex' in that file,
# with the actual integration done in 'sdp4.cpp'.  But be aware:  it's my
# own extension,  doesn't work with other code,  and is therefore used
# only when necessary.
#
#    Also,  if you use a TLE outside the "correct" time range (between
# its MJD and that of the next TLE),  all bets are off.  I've carefully
# computed and minimized the worst error over the "correct" time frame,
# but the ephemeris may (or may not) diverge wildly outside of it.
#
# Ephem range: 60167.000000 60366.000000 1.000000
# Created Thu Feb 15 20:07:28 2024
# Ephemeris start: 11 Aug 2023  0:00:00
# Ephemeris end:   26 Feb 2024  0:00:00
# Times are all TDT
# Positions/velocities are in equatorial J2000
# Orbital elements:  2023-118B = NORAD 57601 = Fregat No. 122-10
#    Perigee 2023 Nov 13.2948018 +/- 4.56e-6 TT =  7:04:30.87 (JD 2460261.7948018)
# Epoch 2023 Nov 13.0 TT; AMR 0.0086247 +/- 2.81e-5 m^2/kg         Find_Orb
# M 352.5790511550 +/- 0.00011        (J2000 equator)
# n  25.1726682773 +/- 4.32e-6        Peri.  206.1577133 +/- 0.000027
# a248876.56519 +/- 0.0284            Node   119.7543601 +/- 0.000029
# e   0.633614256 +/- 4.81e-7         Incl.   43.3016518 +/- 0.000024
# P  14.3010d                H 26.88  G  0.15   U  4.5
# q 91184.825405 +/- 0.125    Q 406568.30498 +/- 0.107
# 287 of 291 observations 2023 Oct. 5-2024 Feb. 14; mean residual 1".924
#
# 1 NoradU COSPAR   Epoch.epoch     dn/dt/2  d2n/dt2/6 BSTAR    T El# C
# 2 NoradU Inclina RAAscNode Eccent  ArgPeri MeanAno  MeanMotion Rev# C

# Worst residual: 165.63 km
# MJD 60167.000000 (2023 Aug 11  0:00)
2023-118B = NORAD 57601 = Fregat No. 122-10
1 57601U 23118B   23222.99919926 -0003B6IB -0003N5FD -0005JMYBH 22380
2 57601                          +0018J335 +000055WP +000EZ7WI     08

# Worst residual: 0.85 km
# MJD 60168.000000 (2023 Aug 12  0:00)
2023-118B = NORAD 57601 = Fregat No. 122-10
1 57601U 23118B   23223.99919926 -0026IFYC +001Y47M9 +001NA3AVH 22380
2 57601                          -000750EA +0004BP92 +0002VPJP     01

# Worst residual: 0.91 km
# MJD 60169.000000 (2023 Aug 13  0:00)
2023-118B = NORAD 57601 = Fregat No. 122-10
1 57601U 23118B   23224.99919926 -003LF13P +002QJBDE +0024R07LH 22380
2 57601                          -0004WBTG +0002IJ5O +0001E70R     01

# Worst residual: 2.42 km
# MJD 60170.000000 (2023 Aug 14  0:00)
2023-118B = NORAD 57601 = Fregat No. 122-10
1 57601U 23118B   23225.99919926 -004LH9NZ +0037WCMV +002DD6QPH 22380
2 57601                          -0003ITR7 +0001KUVT +0000NTDM     03

# Worst residual: 5.76 km
# MJD 60171.000000 (2023 Aug 15  0:00)
2023-118B = NORAD 57601 = Fregat No. 122-10
1 57601U 23118B   23226.99919926 -005B13Y0 +003IQZB9 +002GVIX3H 22386
2 57601                          -0002EPAJ +0000Z438 +00006E6R     01

# Worst residual: 63.22 km
# MJD 60172.000000 (2023 Aug 16  0:00)
2023-118B = NORAD 57601 = Fregat No. 122-10
1 57601U 23118B   23227.99919926 -005QLJX3 +003PJNK4 +002GNPDFH 22388
2 57601                          -000126J7 +0000N0L9 -0000991F     07

# Worst residual: 35.29 km
# MJD 60173.000000 (2023 Aug 17  0:00)
2023-118B = NORAD 57601 = Fregat No. 122-10
1 57601U 23118B   23228.99919926 -005RD7EK +003QQS40 +0029V6NQH 22388
2 57601                          +0000KMQ8 -0000IOZT -0001A542     03

# Worst residual: 7.16 km
# MJD 60174.000000 (2023 Aug 18  0:00)
2023-118B = NORAD 57601 = Fregat No. 122-10
1 57601U 23118B   23229.99919926 -005IXBAO +003IB4QF +001WLHU1H 22387
2 57601                          +0001EIJN -0001DKMA -0001R0OY     06

# Worst residual: 2.42 km
# MJD 60175.000000 (2023 Aug 19  0:00)
2023-118B = NORAD 57601 = Fregat No. 122-10
1 57601U 23118B   23230.99919926 -0052GYMP +00335VLK +001FUAXJH 22384
2 57601                          +0002GDPO -0002511A -00024ILJ     00

# Worst residual: 0.80 km
# MJD 60176.000000 (2023 Aug 20  0:00)
2023-118B = NORAD 57601 = Fregat No. 122-10
1 57601U 23118B   23231.99919926 -004BA0W1 +002GV1C3 +000VUHY1H 22388
2 57601                          +0003Y0TH -00032IXU -0002I8G0     01

# Worst residual: 0.15 km
# MJD 60177.000000 (2023 Aug 21  0:00)
2023-118B = NORAD 57601 = Fregat No. 122-10
1 57601U 23118B   23232.99919926 -00331JZV +001KLPIJ +0008HRSNH 22383
2 57601                          +0006NFM9 -0004K4JA -0002W1XE     09

# Worst residual: 57.66 km
# MJD 60178.000000 (2023 Aug 22  0:00)
2023-118B = NORAD 57601 = Fregat No. 122-10
1 57601U 23118B   23233.99919926 -000E9BYF +0000Q70Y -000C5KUNH 22380
2 57601                          +000QLXDB -000AIUGM +00044UCU     00

# Worst residual: 0.30 km
# MJD 60179.000000 (2023 Aug 23  0:00)
2023-118B = NORAD 57601 = Fregat No. 122-10
1 57601U 23118B   23234.99919926 -001P3EKA +001ST47F +0020O8QHH 22385
2 57601                          -0006RJ2G +00051DIA +0003PUT9     08

# Worst residual: 0.36 km
# MJD 60180.000000 (2023 Aug 24  0:00)
2023-118B = NORAD 57601 = Fregat No. 122-10
1 57601U 23118B   23235.99919926 -0031SOCY +002QNFFG +002MGX70H 22385
2 57601                          -0004QJ7O +00032LBB +0001O0V5     04

# Worst residual: 0.34 km
# MJD 60181.000000 (2023 Aug 25  0:00)
2023-118B = NORAD 57601 = Fregat No. 122-10
1 57601U 23118B   23236.99919926 -00413DXG +003CB9U4 +002WBJSAH 22387
2 57601                          -0003I5M0 +00020N14 +0000P3YY     00

# Worst residual: 0.25 km
# MJD 60182.000000 (2023 Aug 26  0:00)
2023-118B = NORAD 57601 = Fregat No. 122-10
1 57601U 23118B   23237.99919926 -004R5UBY +003QD171 +002ZGFAPH 22385
2 57601                          -0002K7CE +00019L5G +00002AB8     06

# Worst residual: 0.20 km
# MJD 60183.000000 (2023 Aug 27  0:00)
2023-118B = NORAD 57601 = Fregat No. 122-10
1 57601U 23118B   23238.99919926 -0059QC05 +003YL1MZ +002XUPXSH 22388
2 57601                          -0001R2OM +0000NHT9 -0000EZR3     08

# Worst residual: 0.25 km
# MJD 60184.000000 (2023 Aug 28  0:00)
2023-118B = NORAD 57601 = Fregat No. 122-10
1 57601U 23118B   23239.99919926 -005LLV1C +0041TR79 +002SHS6AH 22389
2 57601                          -00010317 +00003RRO -0000TAZI     08

# Worst residual: 0.36 km
# MJD 60185.000000 (2023 Aug 29  0:00)
2023-118B = NORAD 57601 = Fregat No. 122-10
1 57601U 23118B   23240.99919926 -005R2UQU +0040GKLQ +002JX1PQH 22380
2 57601                          -00009FQH -0000F4FB -00015YNA     03

# Worst residual: 0.40 km
# MJD 60186.000000 (2023 Aug 30  0:00)
2023-118B = NORAD 57601 = Fregat No. 122-10
1 57601U 23118B   23241.99919926 -005Q14G6 +003UJ9Z3 +0028F2PKH 22380
2 57601                          +0000IJTC -0000YF4P -0001HS0L     08

# Worst residual: 0.50 km
# MJD 60187.000000 (2023 Aug 31  0:00)
2023-118B = NORAD 57601 = Fregat No. 122-10
1 57601U 23118B   23242.99919926 -005HWBEA +003JSSHO +001U4FKTH 22381
2 57601                          +0001E1W2 -0001JGZQ -0001TCVI     09

# Worst residual: 0.61 km
# MJD 60188.000000 (2023 Sep  1  0:00)
2023-118B = NORAD 57601 = Fregat No. 122-10
1 57601U 23118B   23243.99919926 -0051FRSM +0033LZ4D +001D0UGRH 22386
2 57601                          +0002GS8E -00028BBO -000258A7     05

# Worst residual: 0.60 km
# MJD 60189.000000 (2023 Sep  2  0:00)
2023-118B = NORAD 57601 = Fregat No. 122-10
1 57601U 23118B   23244.99919926 -004A2CX1 +002GMFZ5 +000SZR1AH 22385
2 57601                          +0003Z6WV -000356WO -0002HTPT     08

# Worst residual: 0.81 km
# MJD 60190.000000 (2023 Sep  3  0:00)
2023-118B = NORAD 57601 = Fregat No. 122-10
1 57601U 23118B   23245.99919926 -0031BXNC +001JNGNA +0005WYC6H 22387
2 57601                          +0006R1E8 -0004NR04 -0002TVKT     08

